YAOGAN-43 01G           
1 60464U 24148G   26068.44348481  .00010133  00000+0  35873-3 0  9993
2 60464  35.0006  62.0013 0007382 306.3543  53.6492 15.28332833 87004
STARLINK-34525          
1 64678U 25139Q   26068.45493914  .00013067  00000+0  45252-3 0  9999
2 64678  53.1578 128.4477 0001149  87.3536 272.7596 15.30199814 40241
